[Satellite]
VERSION=1.1
NAME=FloripaSat 1
NICKNAME=FloripaSat 1
TLE1=1 44885U 19093G   25178.77676006  .00003807  00000-0  32189-3 0  9997
TLE2=2 44885  97.8156 266.4151 0011821 142.4785 217.7264 14.98622184299471
STATUS=0
